0 COSMOS 504
1 06117U 72057A   13281.19702786 -.00000017  00000-0  25030-6 0  7893
2 06117 074.0284 222.6056 0112710 291.7441 131.9442 12.63543784901316
0 COSMOS 504
1 06117U 72057A   13283.42519545 -.00000049  00000-0 -17040-3 0  7907
2 06117 074.0286 219.5681 0112709 288.3278 187.3184 12.63544069901590
0 COSMOS 504
1 06117U 72057A   13285.86604802 -.00000037  00000-0 -10702-3 0  7914
2 06117 074.0289 216.2408 0112691 284.5843 130.1476 12.63543929901909
0 COSMOS 504
1 06117U 72057A   13288.16437625  .00000003  00000-0  10849-3 0  7921
2 06117 074.0290 213.1080 0112660 281.0670 144.6617 12.63543523902198
0 COSMOS 504
1 06117U 72057A   13290.24244826  .00000014  00000-0  16753-3 0  7935
2 06117 074.0288 210.2756 0112668 277.8780 237.2918 12.63543452902459
0 COSMOS 504
1 06117U 72057A   13292.28987164  .00000002  00000-0  10246-3 0  7949
2 06117 074.0286 207.4850 0112658 274.7414 190.5021 12.63543659902713
0 COSMOS 504
1 06117U 72057A   13294.50767606 -.00000025  00000-0 -39352-4 0  7951
2 06117 074.0284 204.4621 0112624 271.3401 198.7374 12.63543935902994
